{
  "norad_id": 57866,
  "name": "STARLINK-30393",
  "history": [
    {
      "epoch": "2026-03-28T17:43:34.468032",
      "apogee_km": 483.7675934993604,
      "perigee_km": 482.092120972824,
      "latitude_deg": -30.399167181591725,
      "longitude_deg": 37.50496447994374,
      "semi_major_axis_km": 6861.066857236092,
      "eccentricity": 0.0001221,
      "inclination_deg": 42.9984,
      "raan_deg": 177.3689,
      "arg_perigee_deg": 260.015,
      "mean_anomaly_deg": 100.0564,
      "mean_motion_rev_day": 15.27619822
    }
  ]
}